[{"OBJECT_NAME":"STARLINK-36653","OBJECT_ID":"2026-033X","EPOCH":"2026-03-09T22:21:53.479008","MEAN_MOTION":15.82138429,"ECCENTRICITY":0.00015311,"INCLINATION":42.998,"RA_OF_ASC_NODE":269.8261,"ARG_OF_PERICENTER":294.8376,"MEAN_ANOMALY":65.2336,"EPHEMERIS_TYPE":0,"CLASSIFICATION_TYPE":"U","NORAD_CAT_ID":67842,"ELEMENT_SET_NO":999,"REV_AT_EPOCH":466,"BSTAR":0.0019301972,"MEAN_MOTION_DOT":0.00429158,"MEAN_MOTION_DDOT":0},{"OBJECT_NAME":"COSMOS 2251 DEB","OBJECT_ID":"1993-036AKA","EPOCH":"2026-03-09T09:22:03.575424","MEAN_MOTION":15.68318455,"ECCENTRICITY":0.0015577,"INCLINATION":74.005,"RA_OF_ASC_NODE":188.7318,"ARG_OF_PERICENTER":331.7378,"MEAN_ANOMALY":28.2997,"EPHEMERIS_TYPE":0,"CLASSIFICATION_TYPE":"U","NORAD_CAT_ID":35432,"ELEMENT_SET_NO":999,"REV_AT_EPOCH":88835,"BSTAR":0.011294709,"MEAN_MOTION_DOT":0.01441733,"MEAN_MOTION_DDOT":0}]
